SSN,HOME ADDRESS 1,HOME ADDRESS 2,CITY,STATE,ZIP,PHONE,EMAIL,ALT EMAIL
103-456-001,1904 S 123RD ST E 001,,WICHITA,KS,50001,316-640-7001,aaa001@wichita.gov,
103-456-002,1904 S 123RD ST E 002,,WICHITA,KS,50002,316-640-7002,aaa002@wichita.gov,
103-456-003,1904 S 123RD ST E 003,,WICHITA,KS,50003,316-640-7003,aaa003@wichita.gov,
103-456-004,1904 S 123RD ST E 004,,WICHITA,KS,50004,316-640-7004,aaa004@wichita.gov,
103-456-005,1904 S 123RD ST E 005,,WICHITA,KS,50005,316-640-7005,aaa005@wichita.gov,
103-456-006,1904 S 123RD ST E 006,,WICHITA,KS,50006,316-640-7006,aaa006@wichita.gov,
103-456-007,1904 S 123RD ST E 007,,WICHITA,KS,50007,316-640-7007,aaa007@wichita.gov,
103-456-008,1904 S 123RD ST E 008,,WICHITA,KS,50008,316-640-7008,aaa008@wichita.gov,
103-456-009,1904 S 123RD ST E 009,,WICHITA,KS,50009,316-640-7009,aaa009@wichita.gov,
103-456-010,1904 S 123RD ST E 010,,WICHITA,KS,50010,316-640-7010,aaa010@wichita.gov,
103-456-011,1904 S 123RD ST E 011,,WICHITA,KS,50011,316-640-7011,aaa011@wichita.gov,
103-456-012,1904 S 123RD ST E 012,,WICHITA,KS,50012,316-640-7012,aaa012@wichita.gov,
103-456-013,1904 S 123RD ST E 013,,WICHITA,KS,50013,316-640-7013,aaa013@wichita.gov,
103-456-014,1904 S 123RD ST E 014,,WICHITA,KS,50014,316-640-7014,aaa014@wichita.gov,
103-456-015,1904 S 123RD ST E 015,,WICHITA,KS,50015,316-640-7015,aaa015@wichita.gov,
103-456-016,1904 S 123RD ST E 016,,WICHITA,KS,50016,316-640-7016,aaa016@wichita.gov,
103-456-017,1904 S 123RD ST E 017,,WICHITA,KS,50017,316-640-7017,aaa017@wichita.gov,
103-456-018,1904 S 123RD ST E 018,,WICHITA,KS,50018,316-640-7018,aaa018@wichita.gov,
103-456-019,1904 S 123RD ST E 019,,WICHITA,KS,50019,316-640-7019,aaa019@wichita.gov,
103-456-020,1904 S 123RD ST E 020,,WICHITA,KS,50020,316-640-7020,aaa020@wichita.gov,
103-456-021,1904 S 123RD ST E 021,,WICHITA,KS,50021,316-640-7021,aaa021@wichita.gov,
103-456-022,1904 S 123RD ST E 022,,WICHITA,KS,50022,316-640-7022,aaa022@wichita.gov,
103-456-023,1904 S 123RD ST E 023,,WICHITA,KS,50023,316-640-7023,aaa023@wichita.gov,
103-456-024,1904 S 123RD ST E 024,,WICHITA,KS,50024,316-640-7024,aaa024@wichita.gov,
103-456-025,1904 S 123RD ST E 025,,WICHITA,KS,50025,316-640-7025,aaa025@wichita.gov,
103-456-026,1904 S 123RD ST E 026,,WICHITA,KS,50026,316-640-7026,aaa026@wichita.gov,
103-456-027,1904 S 123RD ST E 027,,WICHITA,KS,50027,316-640-7027,aaa027@wichita.gov,
103-456-028,1904 S 123RD ST E 028,,WICHITA,KS,50028,316-640-7028,aaa028@wichita.gov,
103-456-029,1904 S 123RD ST E 029,,WICHITA,KS,50029,316-640-7029,aaa029@wichita.gov,
103-456-030,1904 S 123RD ST E 030,,WICHITA,KS,50030,316-640-7030,aaa030@wichita.gov,
103-456-031,1904 S 123RD ST E 031,,WICHITA,KS,50031,316-640-7031,aaa031@wichita.gov,
103-456-032,1904 S 123RD ST E 032,,WICHITA,KS,50032,316-640-7032,aaa032@wichita.gov,
103-456-033,1904 S 123RD ST E 033,,WICHITA,KS,50033,316-640-7033,aaa033@wichita.gov,
103-456-034,1904 S 123RD ST E 034,,WICHITA,KS,50034,316-640-7034,aaa034@wichita.gov,
103-456-035,1904 S 123RD ST E 035,,WICHITA,KS,50035,316-640-7035,aaa035@wichita.gov,
103-456-036,1904 S 123RD ST E 036,,WICHITA,KS,50036,316-640-7036,aaa036@wichita.gov,
103-456-037,1904 S 123RD ST E 037,,WICHITA,KS,50037,316-640-7037,aaa037@wichita.gov,
103-456-038,1904 S 123RD ST E 038,,WICHITA,KS,50038,316-640-7038,aaa038@wichita.gov,
103-456-039,1904 S 123RD ST E 039,,WICHITA,KS,50039,316-640-7039,aaa039@wichita.gov,
103-456-040,1904 S 123RD ST E 040,,WICHITA,KS,50040,316-640-7040,aaa040@wichita.gov,
103-456-041,1904 S 123RD ST E 041,,WICHITA,KS,50041,316-640-7041,aaa041@wichita.gov,
103-456-042,1904 S 123RD ST E 042,,WICHITA,KS,50042,316-640-7042,aaa042@wichita.gov,
103-456-043,1904 S 123RD ST E 043,,WICHITA,KS,50043,316-640-7043,aaa043@wichita.gov,
103-456-044,1904 S 123RD ST E 044,,WICHITA,KS,50044,316-640-7044,aaa044@wichita.gov,
103-456-045,1904 S 123RD ST E 045,,WICHITA,KS,50045,316-640-7045,aaa045@wichita.gov,
103-456-046,1904 S 123RD ST E 046,,WICHITA,KS,50046,316-640-7046,aaa046@wichita.gov,
103-456-047,1904 S 123RD ST E 047,,WICHITA,KS,50047,316-640-7047,aaa047@wichita.gov,
103-456-048,1904 S 123RD ST E 048,,WICHITA,KS,50048,316-640-7048,aaa048@wichita.gov,
103-456-049,1904 S 123RD ST E 049,,WICHITA,KS,50049,316-640-7049,aaa049@wichita.gov,
103-456-050,1904 S 123RD ST E 050,,WICHITA,KS,50050,316-640-7050,aaa050@wichita.gov,
103-456-051,1904 S 123RD ST E 051,,WICHITA,KS,50051,316-640-7051,aaa051@wichita.gov,
103-456-052,1904 S 123RD ST E 052,,WICHITA,KS,50052,316-640-7052,aaa052@wichita.gov,
103-456-053,1904 S 123RD ST E 053,,WICHITA,KS,50053,316-640-7053,aaa053@wichita.gov,
103-456-054,1904 S 123RD ST E 054,,WICHITA,KS,50054,316-640-7054,aaa054@wichita.gov,
103-456-055,1904 S 123RD ST E 055,,WICHITA,KS,50055,316-640-7055,aaa055@wichita.gov,
103-456-056,1904 S 123RD ST E 056,,WICHITA,KS,50056,316-640-7056,aaa056@wichita.gov,
103-456-057,1904 S 123RD ST E 057,,WICHITA,KS,50057,316-640-7057,aaa057@wichita.gov,
103-456-058,1904 S 123RD ST E 058,,WICHITA,KS,50058,316-640-7058,aaa058@wichita.gov,
103-456-059,1904 S 123RD ST E 059,,WICHITA,KS,50059,316-640-7059,aaa059@wichita.gov,
103-456-060,1904 S 123RD ST E 060,,WICHITA,KS,50060,316-640-7060,aaa060@wichita.gov,
103-456-061,1904 S 123RD ST E 061,,WICHITA,KS,50061,316-640-7061,aaa061@wichita.gov,
103-456-062,1904 S 123RD ST E 062,,WICHITA,KS,50062,316-640-7062,aaa062@wichita.gov,
103-456-063,1904 S 123RD ST E 063,,WICHITA,KS,50063,316-640-7063,aaa063@wichita.gov,
103-456-064,1904 S 123RD ST E 064,,WICHITA,KS,50064,316-640-7064,aaa064@wichita.gov,
103-456-065,1904 S 123RD ST E 065,,WICHITA,KS,50065,316-640-7065,aaa065@wichita.gov,
103-456-066,1904 S 123RD ST E 066,,WICHITA,KS,50066,316-640-7066,aaa066@wichita.gov,
103-456-067,1904 S 123RD ST E 067,,WICHITA,KS,50067,316-640-7067,aaa067@wichita.gov,
103-456-068,1904 S 123RD ST E 068,,WICHITA,KS,50068,316-640-7068,aaa068@wichita.gov,
103-456-069,1904 S 123RD ST E 069,,WICHITA,KS,50069,316-640-7069,aaa069@wichita.gov,
103-456-070,1904 S 123RD ST E 070,,WICHITA,KS,50070,316-640-7070,aaa070@wichita.gov,
103-456-071,1904 S 123RD ST E 071,,WICHITA,KS,50071,316-640-7071,aaa071@wichita.gov,
103-456-072,1904 S 123RD ST E 072,,WICHITA,KS,50072,316-640-7072,aaa072@wichita.gov,
103-456-073,1904 S 123RD ST E 073,,WICHITA,KS,50073,316-640-7073,aaa073@wichita.gov,
103-456-074,1904 S 123RD ST E 074,,WICHITA,KS,50074,316-640-7074,aaa074@wichita.gov,
103-456-075,1904 S 123RD ST E 075,,WICHITA,KS,50075,316-640-7075,aaa075@wichita.gov,
103-456-076,1904 S 123RD ST E 076,,WICHITA,KS,50076,316-640-7076,aaa076@wichita.gov,
103-456-077,1904 S 123RD ST E 077,,WICHITA,KS,50077,316-640-7077,aaa077@wichita.gov,
103-456-078,1904 S 123RD ST E 078,,WICHITA,KS,50078,316-640-7078,aaa078@wichita.gov,
103-456-079,1904 S 123RD ST E 079,,WICHITA,KS,50079,316-640-7079,aaa079@wichita.gov,
103-456-080,1904 S 123RD ST E 080,,WICHITA,KS,50080,316-640-7080,aaa080@wichita.gov,
103-456-081,1904 S 123RD ST E 081,,WICHITA,KS,50081,316-640-7081,aaa081@wichita.gov,
103-456-082,1904 S 123RD ST E 082,,WICHITA,KS,50082,316-640-7082,aaa082@wichita.gov,
103-456-083,1904 S 123RD ST E 083,,WICHITA,KS,50083,316-640-7083,aaa083@wichita.gov,
103-456-084,1904 S 123RD ST E 084,,WICHITA,KS,50084,316-640-7084,aaa084@wichita.gov,
103-456-085,1904 S 123RD ST E 085,,WICHITA,KS,50085,316-640-7085,aaa085@wichita.gov,
103-456-086,1904 S 123RD ST E 086,,WICHITA,KS,50086,316-640-7086,aaa086@wichita.gov,
103-456-087,1904 S 123RD ST E 087,,WICHITA,KS,50087,316-640-7087,aaa087@wichita.gov,
103-456-088,1904 S 123RD ST E 088,,WICHITA,KS,50088,316-640-7088,aaa088@wichita.gov,
103-456-089,1904 S 123RD ST E 089,,WICHITA,KS,50089,316-640-7089,aaa089@wichita.gov,
103-456-090,1904 S 123RD ST E 090,,WICHITA,KS,50090,316-640-7090,aaa090@wichita.gov,
103-456-091,1904 S 123RD ST E 091,,WICHITA,KS,50091,316-640-7091,aaa091@wichita.gov,
103-456-092,1904 S 123RD ST E 092,,WICHITA,KS,50092,316-640-7092,aaa092@wichita.gov,
103-456-093,1904 S 123RD ST E 093,,WICHITA,KS,50093,316-640-7093,aaa093@wichita.gov,
103-456-094,1904 S 123RD ST E 094,,WICHITA,KS,50094,316-640-7094,aaa094@wichita.gov,
103-456-095,1904 S 123RD ST E 095,,WICHITA,KS,50095,316-640-7095,aaa095@wichita.gov,
103-456-096,1904 S 123RD ST E 096,,WICHITA,KS,50096,316-640-7096,aaa096@wichita.gov,
103-456-097,1904 S 123RD ST E 097,,WICHITA,KS,50097,316-640-7097,aaa097@wichita.gov,
103-456-098,1904 S 123RD ST E 098,,WICHITA,KS,50098,316-640-7098,aaa098@wichita.gov,
103-456-099,1904 S 123RD ST E 099,,WICHITA,KS,50099,316-640-7099,aaa099@wichita.gov,
103-456-100,1904 S 123RD ST E 100,,WICHITA,KS,50100,316-640-7100,aaa100@wichita.gov,
103-456-101,1904 S 123RD ST E 101,,WICHITA,KS,50101,316-640-7101,aaa101@wichita.gov,
103-456-102,1904 S 123RD ST E 102,,WICHITA,KS,50102,316-640-7102,aaa102@wichita.gov,
103-456-103,1904 S 123RD ST E 103,,WICHITA,KS,50103,316-640-7103,aaa103@wichita.gov,
103-456-104,1904 S 123RD ST E 104,,WICHITA,KS,50104,316-640-7104,aaa104@wichita.gov,
103-456-105,1904 S 123RD ST E 105,,WICHITA,KS,50105,316-640-7105,aaa105@wichita.gov,
103-456-106,1904 S 123RD ST E 106,,WICHITA,KS,50106,316-640-7106,aaa106@wichita.gov,
103-456-107,1904 S 123RD ST E 107,,WICHITA,KS,50107,316-640-7107,aaa107@wichita.gov,
103-456-108,1904 S 123RD ST E 108,,WICHITA,KS,50108,316-640-7108,aaa108@wichita.gov,
103-456-109,1904 S 123RD ST E 109,,WICHITA,KS,50109,316-640-7109,aaa109@wichita.gov,
103-456-110,1904 S 123RD ST E 110,,WICHITA,KS,50110,316-640-7110,aaa110@wichita.gov,
103-456-111,1904 S 123RD ST E 111,,WICHITA,KS,50111,316-640-7111,aaa111@wichita.gov,
103-456-112,1904 S 123RD ST E 112,,WICHITA,KS,50112,316-640-7112,aaa112@wichita.gov,
103-456-113,1904 S 123RD ST E 113,,WICHITA,KS,50113,316-640-7113,aaa113@wichita.gov,
103-456-114,1904 S 123RD ST E 114,,WICHITA,KS,50114,316-640-7114,aaa114@wichita.gov,
103-456-115,1904 S 123RD ST E 115,,WICHITA,KS,50115,316-640-7115,aaa115@wichita.gov,
103-456-116,1904 S 123RD ST E 116,,WICHITA,KS,50116,316-640-7116,aaa116@wichita.gov,
103-456-117,1904 S 123RD ST E 117,,WICHITA,KS,50117,316-640-7117,aaa117@wichita.gov,
103-456-118,1904 S 123RD ST E 118,,WICHITA,KS,50118,316-640-7118,aaa118@wichita.gov,
103-456-119,1904 S 123RD ST E 119,,WICHITA,KS,50119,316-640-7119,aaa119@wichita.gov,
103-456-120,1904 S 123RD ST E 120,,WICHITA,KS,50120,316-640-7120,aaa120@wichita.gov,
103-456-121,1904 S 123RD ST E 121,,WICHITA,KS,50121,316-640-7121,aaa121@wichita.gov,
103-456-122,1904 S 123RD ST E 122,,WICHITA,KS,50122,316-640-7122,aaa122@wichita.gov,
103-456-123,1904 S 123RD ST E 123,,WICHITA,KS,50123,316-640-7123,aaa123@wichita.gov,
103-456-124,1904 S 123RD ST E 124,,WICHITA,KS,50124,316-640-7124,aaa124@wichita.gov,
103-456-125,1904 S 123RD ST E 125,,WICHITA,KS,50125,316-640-7125,aaa125@wichita.gov,
103-456-126,1904 S 123RD ST E 126,,WICHITA,KS,50126,316-640-7126,aaa126@wichita.gov,
103-456-127,1904 S 123RD ST E 127,,WICHITA,KS,50127,316-640-7127,aaa127@wichita.gov,
103-456-128,1904 S 123RD ST E 128,,WICHITA,KS,50128,316-640-7128,aaa128@wichita.gov,
103-456-129,1904 S 123RD ST E 129,,WICHITA,KS,50129,316-640-7129,aaa129@wichita.gov,
103-456-130,1904 S 123RD ST E 130,,WICHITA,KS,50130,316-640-7130,aaa130@wichita.gov,
103-456-131,1904 S 123RD ST E 131,,WICHITA,KS,50131,316-640-7131,aaa131@wichita.gov,
103-456-132,1904 S 123RD ST E 132,,WICHITA,KS,50132,316-640-7132,aaa132@wichita.gov,
103-456-133,1904 S 123RD ST E 133,,WICHITA,KS,50133,316-640-7133,aaa133@wichita.gov,
103-456-134,1904 S 123RD ST E 134,,WICHITA,KS,50134,316-640-7134,aaa134@wichita.gov,
103-456-135,1904 S 123RD ST E 135,,WICHITA,KS,50135,316-640-7135,aaa135@wichita.gov,
103-456-136,1904 S 123RD ST E 136,,WICHITA,KS,50136,316-640-7136,aaa136@wichita.gov,
103-456-137,1904 S 123RD ST E 137,,WICHITA,KS,50137,316-640-7137,aaa137@wichita.gov,
103-456-138,1904 S 123RD ST E 138,,WICHITA,KS,50138,316-640-7138,aaa138@wichita.gov,
103-456-139,1904 S 123RD ST E 139,,WICHITA,KS,50139,316-640-7139,aaa139@wichita.gov,
103-456-140,1904 S 123RD ST E 140,,WICHITA,KS,50140,316-640-7140,aaa140@wichita.gov,
103-456-141,1904 S 123RD ST E 141,,WICHITA,KS,50141,316-640-7141,aaa141@wichita.gov,
103-456-142,1904 S 123RD ST E 142,,WICHITA,KS,50142,316-640-7142,aaa142@wichita.gov,
103-456-143,1904 S 123RD ST E 143,,WICHITA,KS,50143,316-640-7143,aaa143@wichita.gov,
103-456-144,1904 S 123RD ST E 144,,WICHITA,KS,50144,316-640-7144,aaa144@wichita.gov,
103-456-145,1904 S 123RD ST E 145,,WICHITA,KS,50145,316-640-7145,aaa145@wichita.gov,
103-456-146,1904 S 123RD ST E 146,,WICHITA,KS,50146,316-640-7146,aaa146@wichita.gov,
103-456-147,1904 S 123RD ST E 147,,WICHITA,KS,50147,316-640-7147,aaa147@wichita.gov,
103-456-148,1904 S 123RD ST E 148,,WICHITA,KS,50148,316-640-7148,aaa148@wichita.gov,
103-456-149,1904 S 123RD ST E 149,,WICHITA,KS,50149,316-640-7149,aaa149@wichita.gov,
103-456-150,1904 S 123RD ST E 150,,WICHITA,KS,50150,316-640-7150,aaa150@wichita.gov,
103-456-151,1904 S 123RD ST E 151,,WICHITA,KS,50151,316-640-7151,aaa151@wichita.gov,
103-456-152,1904 S 123RD ST E 152,,WICHITA,KS,50152,316-640-7152,aaa152@wichita.gov,
103-456-153,1904 S 123RD ST E 153,,WICHITA,KS,50153,316-640-7153,aaa153@wichita.gov,
103-456-154,1904 S 123RD ST E 154,,WICHITA,KS,50154,316-640-7154,aaa154@wichita.gov,
103-456-155,1904 S 123RD ST E 155,,WICHITA,KS,50155,316-640-7155,aaa155@wichita.gov,
103-456-156,1904 S 123RD ST E 156,,WICHITA,KS,50156,316-640-7156,aaa156@wichita.gov,
103-456-157,1904 S 123RD ST E 157,,WICHITA,KS,50157,316-640-7157,aaa157@wichita.gov,
103-456-158,1904 S 123RD ST E 158,,WICHITA,KS,50158,316-640-7158,aaa158@wichita.gov,
103-456-159,1904 S 123RD ST E 159,,WICHITA,KS,50159,316-640-7159,aaa159@wichita.gov,
103-456-160,1904 S 123RD ST E 160,,WICHITA,KS,50160,316-640-7160,aaa160@wichita.gov,
103-456-161,1904 S 123RD ST E 161,,WICHITA,KS,50161,316-640-7161,aaa161@wichita.gov,
103-456-162,1904 S 123RD ST E 162,,WICHITA,KS,50162,316-640-7162,aaa162@wichita.gov,
103-456-163,1904 S 123RD ST E 163,,WICHITA,KS,50163,316-640-7163,aaa163@wichita.gov,
103-456-164,1904 S 123RD ST E 164,,WICHITA,KS,50164,316-640-7164,aaa164@wichita.gov,
103-456-165,1904 S 123RD ST E 165,,WICHITA,KS,50165,316-640-7165,aaa165@wichita.gov,
103-456-166,1904 S 123RD ST E 166,,WICHITA,KS,50166,316-640-7166,aaa166@wichita.gov,
103-456-167,1904 S 123RD ST E 167,,WICHITA,KS,50167,316-640-7167,aaa167@wichita.gov,
103-456-168,1904 S 123RD ST E 168,,WICHITA,KS,50168,316-640-7168,aaa168@wichita.gov,
103-456-169,1904 S 123RD ST E 169,,WICHITA,KS,50169,316-640-7169,aaa169@wichita.gov,
103-456-170,1904 S 123RD ST E 170,,WICHITA,KS,50170,316-640-7170,aaa170@wichita.gov,
103-456-171,1904 S 123RD ST E 171,,WICHITA,KS,50171,316-640-7171,aaa171@wichita.gov,
103-456-172,1904 S 123RD ST E 172,,WICHITA,KS,50172,316-640-7172,aaa172@wichita.gov,
103-456-173,1904 S 123RD ST E 173,,WICHITA,KS,50173,316-640-7173,aaa173@wichita.gov,
103-456-174,1904 S 123RD ST E 174,,WICHITA,KS,50174,316-640-7174,aaa174@wichita.gov,
103-456-175,1904 S 123RD ST E 175,,WICHITA,KS,50175,316-640-7175,aaa175@wichita.gov,
103-456-176,1904 S 123RD ST E 176,,WICHITA,KS,50176,316-640-7176,aaa176@wichita.gov,
103-456-177,1904 S 123RD ST E 177,,WICHITA,KS,50177,316-640-7177,aaa177@wichita.gov,
103-456-178,1904 S 123RD ST E 178,,WICHITA,KS,50178,316-640-7178,aaa178@wichita.gov,
103-456-179,1904 S 123RD ST E 179,,WICHITA,KS,50179,316-640-7179,aaa179@wichita.gov,
103-456-180,1904 S 123RD ST E 180,,WICHITA,KS,50180,316-640-7180,aaa180@wichita.gov,
103-456-181,1904 S 123RD ST E 181,,WICHITA,KS,50181,316-640-7181,aaa181@wichita.gov,
103-456-182,1904 S 123RD ST E 182,,WICHITA,KS,50182,316-640-7182,aaa182@wichita.gov,
103-456-183,1904 S 123RD ST E 183,,WICHITA,KS,50183,316-640-7183,aaa183@wichita.gov,
103-456-184,1904 S 123RD ST E 184,,WICHITA,KS,50184,316-640-7184,aaa184@wichita.gov,
103-456-185,1904 S 123RD ST E 185,,WICHITA,KS,50185,316-640-7185,aaa185@wichita.gov,
103-456-186,1904 S 123RD ST E 186,,WICHITA,KS,50186,316-640-7186,aaa186@wichita.gov,
103-456-187,1904 S 123RD ST E 187,,WICHITA,KS,50187,316-640-7187,aaa187@wichita.gov,
103-456-188,1904 S 123RD ST E 188,,WICHITA,KS,50188,316-640-7188,aaa188@wichita.gov,
103-456-189,1904 S 123RD ST E 189,,WICHITA,KS,50189,316-640-7189,aaa189@wichita.gov,
103-456-190,1904 S 123RD ST E 190,,WICHITA,KS,50190,316-640-7190,aaa190@wichita.gov,
103-456-191,1904 S 123RD ST E 191,,WICHITA,KS,50191,316-640-7191,aaa191@wichita.gov,
103-456-192,1904 S 123RD ST E 192,,WICHITA,KS,50192,316-640-7192,aaa192@wichita.gov,
103-456-193,1904 S 123RD ST E 193,,WICHITA,KS,50193,316-640-7193,aaa193@wichita.gov,
103-456-194,1904 S 123RD ST E 194,,WICHITA,KS,50194,316-640-7194,aaa194@wichita.gov,
103-456-195,1904 S 123RD ST E 195,,WICHITA,KS,50195,316-640-7195,aaa195@wichita.gov,
103-456-196,1904 S 123RD ST E 196,,WICHITA,KS,50196,316-640-7196,aaa196@wichita.gov,
103-456-197,1904 S 123RD ST E 197,,WICHITA,KS,50197,316-640-7197,aaa197@wichita.gov,
103-456-198,1904 S 123RD ST E 198,,WICHITA,KS,50198,316-640-7198,aaa198@wichita.gov,
103-456-199,1904 S 123RD ST E 199,,WICHITA,KS,50199,316-640-7199,aaa199@wichita.gov,
103-456-200,1904 S 123RD ST E 200,,WICHITA,KS,50200,316-640-7200,aaa200@wichita.gov,
103-456-201,1904 S 123RD ST E 201,,WICHITA,KS,50201,316-640-7201,aaa201@wichita.gov,
103-456-202,1904 S 123RD ST E 202,,WICHITA,KS,50202,316-640-7202,aaa202@wichita.gov,
103-456-203,1904 S 123RD ST E 203,,WICHITA,KS,50203,316-640-7203,aaa203@wichita.gov,
103-456-204,1904 S 123RD ST E 204,,WICHITA,KS,50204,316-640-7204,aaa204@wichita.gov,
103-456-205,1904 S 123RD ST E 205,,WICHITA,KS,50205,316-640-7205,aaa205@wichita.gov,
103-456-206,1904 S 123RD ST E 206,,WICHITA,KS,50206,316-640-7206,aaa206@wichita.gov,
103-456-207,1904 S 123RD ST E 207,,WICHITA,KS,50207,316-640-7207,aaa207@wichita.gov,
103-456-208,1904 S 123RD ST E 208,,WICHITA,KS,50208,316-640-7208,aaa208@wichita.gov,
103-456-209,1904 S 123RD ST E 209,,WICHITA,KS,50209,316-640-7209,aaa209@wichita.gov,
103-456-210,1904 S 123RD ST E 210,,WICHITA,KS,50210,316-640-7210,aaa210@wichita.gov,
103-456-211,1904 S 123RD ST E 211,,WICHITA,KS,50211,316-640-7211,aaa211@wichita.gov,
103-456-212,1904 S 123RD ST E 212,,WICHITA,KS,50212,316-640-7212,aaa212@wichita.gov,
103-456-213,1904 S 123RD ST E 213,,WICHITA,KS,50213,316-640-7213,aaa213@wichita.gov,
103-456-214,1904 S 123RD ST E 214,,WICHITA,KS,50214,316-640-7214,aaa214@wichita.gov,
103-456-215,1904 S 123RD ST E 215,,WICHITA,KS,50215,316-640-7215,aaa215@wichita.gov,
103-456-216,1904 S 123RD ST E 216,,WICHITA,KS,50216,316-640-7216,aaa216@wichita.gov,
103-456-217,1904 S 123RD ST E 217,,WICHITA,KS,50217,316-640-7217,aaa217@wichita.gov,
103-456-218,1904 S 123RD ST E 218,,WICHITA,KS,50218,316-640-7218,aaa218@wichita.gov,
103-456-219,1904 S 123RD ST E 219,,WICHITA,KS,50219,316-640-7219,aaa219@wichita.gov,
103-456-220,1904 S 123RD ST E 220,,WICHITA,KS,50220,316-640-7220,aaa220@wichita.gov,
103-456-221,1904 S 123RD ST E 221,,WICHITA,KS,50221,316-640-7221,aaa221@wichita.gov,
103-456-222,1904 S 123RD ST E 222,,WICHITA,KS,50222,316-640-7222,aaa222@wichita.gov,
103-456-223,1904 S 123RD ST E 223,,WICHITA,KS,50223,316-640-7223,aaa223@wichita.gov,
103-456-224,1904 S 123RD ST E 224,,WICHITA,KS,50224,316-640-7224,aaa224@wichita.gov,
103-456-225,1904 S 123RD ST E 225,,WICHITA,KS,50225,316-640-7225,aaa225@wichita.gov,
103-456-226,1904 S 123RD ST E 226,,WICHITA,KS,50226,316-640-7226,aaa226@wichita.gov,
103-456-227,1904 S 123RD ST E 227,,WICHITA,KS,50227,316-640-7227,aaa227@wichita.gov,
103-456-228,1904 S 123RD ST E 228,,WICHITA,KS,50228,316-640-7228,aaa228@wichita.gov,
103-456-229,1904 S 123RD ST E 229,,WICHITA,KS,50229,316-640-7229,aaa229@wichita.gov,
103-456-230,1904 S 123RD ST E 230,,WICHITA,KS,50230,316-640-7230,aaa230@wichita.gov,
103-456-231,1904 S 123RD ST E 231,,WICHITA,KS,50231,316-640-7231,aaa231@wichita.gov,
103-456-232,1904 S 123RD ST E 232,,WICHITA,KS,50232,316-640-7232,aaa232@wichita.gov,
103-456-233,1904 S 123RD ST E 233,,WICHITA,KS,50233,316-640-7233,aaa233@wichita.gov,
103-456-234,1904 S 123RD ST E 234,,WICHITA,KS,50234,316-640-7234,aaa234@wichita.gov,
103-456-235,1904 S 123RD ST E 235,,WICHITA,KS,50235,316-640-7235,aaa235@wichita.gov,
103-456-236,1904 S 123RD ST E 236,,WICHITA,KS,50236,316-640-7236,aaa236@wichita.gov,
103-456-237,1904 S 123RD ST E 237,,WICHITA,KS,50237,316-640-7237,aaa237@wichita.gov,
103-456-238,1904 S 123RD ST E 238,,WICHITA,KS,50238,316-640-7238,aaa238@wichita.gov,
103-456-239,1904 S 123RD ST E 239,,WICHITA,KS,50239,316-640-7239,aaa239@wichita.gov,
103-456-240,1904 S 123RD ST E 240,,WICHITA,KS,50240,316-640-7240,aaa240@wichita.gov,
103-456-241,1904 S 123RD ST E 241,,WICHITA,KS,50241,316-640-7241,aaa241@wichita.gov,
103-456-242,1904 S 123RD ST E 242,,WICHITA,KS,50242,316-640-7242,aaa242@wichita.gov,
103-456-243,1904 S 123RD ST E 243,,WICHITA,KS,50243,316-640-7243,aaa243@wichita.gov,
103-456-244,1904 S 123RD ST E 244,,WICHITA,KS,50244,316-640-7244,aaa244@wichita.gov,
103-456-245,1904 S 123RD ST E 245,,WICHITA,KS,50245,316-640-7245,aaa245@wichita.gov,
103-456-246,1904 S 123RD ST E 246,,WICHITA,KS,50246,316-640-7246,aaa246@wichita.gov,
103-456-247,1904 S 123RD ST E 247,,WICHITA,KS,50247,316-640-7247,aaa247@wichita.gov,
103-456-248,1904 S 123RD ST E 248,,WICHITA,KS,50248,316-640-7248,aaa248@wichita.gov,
103-456-249,1904 S 123RD ST E 249,,WICHITA,KS,50249,316-640-7249,aaa249@wichita.gov,
103-456-250,1904 S 123RD ST E 250,,WICHITA,KS,50250,316-640-7250,aaa250@wichita.gov,
103-456-251,1904 S 123RD ST E 251,,WICHITA,KS,50251,316-640-7251,aaa251@wichita.gov,
103-456-252,1904 S 123RD ST E 252,,WICHITA,KS,50252,316-640-7252,aaa252@wichita.gov,
103-456-253,1904 S 123RD ST E 253,,WICHITA,KS,50253,316-640-7253,aaa253@wichita.gov,
103-456-254,1904 S 123RD ST E 254,,WICHITA,KS,50254,316-640-7254,aaa254@wichita.gov,
103-456-255,1904 S 123RD ST E 255,,WICHITA,KS,50255,316-640-7255,aaa255@wichita.gov,
103-456-256,1904 S 123RD ST E 256,,WICHITA,KS,50256,316-640-7256,aaa256@wichita.gov,
103-456-257,1904 S 123RD ST E 257,,WICHITA,KS,50257,316-640-7257,aaa257@wichita.gov,
103-456-258,1904 S 123RD ST E 258,,WICHITA,KS,50258,316-640-7258,aaa258@wichita.gov,
103-456-259,1904 S 123RD ST E 259,,WICHITA,KS,50259,316-640-7259,aaa259@wichita.gov,
103-456-260,1904 S 123RD ST E 260,,WICHITA,KS,50260,316-640-7260,aaa260@wichita.gov,
103-456-261,1904 S 123RD ST E 261,,WICHITA,KS,50261,316-640-7261,aaa261@wichita.gov,
103-456-262,1904 S 123RD ST E 262,,WICHITA,KS,50262,316-640-7262,aaa262@wichita.gov,
103-456-263,1904 S 123RD ST E 263,,WICHITA,KS,50263,316-640-7263,aaa263@wichita.gov,
103-456-264,1904 S 123RD ST E 264,,WICHITA,KS,50264,316-640-7264,aaa264@wichita.gov,
103-456-265,1904 S 123RD ST E 265,,WICHITA,KS,50265,316-640-7265,aaa265@wichita.gov,
103-456-266,1904 S 123RD ST E 266,,WICHITA,KS,50266,316-640-7266,aaa266@wichita.gov,
103-456-267,1904 S 123RD ST E 267,,WICHITA,KS,50267,316-640-7267,aaa267@wichita.gov,
103-456-268,1904 S 123RD ST E 268,,WICHITA,KS,50268,316-640-7268,aaa268@wichita.gov,
103-456-269,1904 S 123RD ST E 269,,WICHITA,KS,50269,316-640-7269,aaa269@wichita.gov,
103-456-270,1904 S 123RD ST E 270,,WICHITA,KS,50270,316-640-7270,aaa270@wichita.gov,
103-456-271,1904 S 123RD ST E 271,,WICHITA,KS,50271,316-640-7271,aaa271@wichita.gov,
103-456-272,1904 S 123RD ST E 272,,WICHITA,KS,50272,316-640-7272,aaa272@wichita.gov,
103-456-273,1904 S 123RD ST E 273,,WICHITA,KS,50273,316-640-7273,aaa273@wichita.gov,
103-456-274,1904 S 123RD ST E 274,,WICHITA,KS,50274,316-640-7274,aaa274@wichita.gov,
103-456-275,1904 S 123RD ST E 275,,WICHITA,KS,50275,316-640-7275,aaa275@wichita.gov,
103-456-276,1904 S 123RD ST E 276,,WICHITA,KS,50276,316-640-7276,aaa276@wichita.gov,
103-456-277,1904 S 123RD ST E 277,,WICHITA,KS,50277,316-640-7277,aaa277@wichita.gov,
103-456-278,1904 S 123RD ST E 278,,WICHITA,KS,50278,316-640-7278,aaa278@wichita.gov,
103-456-279,1904 S 123RD ST E 279,,WICHITA,KS,50279,316-640-7279,aaa279@wichita.gov,
103-456-280,1904 S 123RD ST E 280,,WICHITA,KS,50280,316-640-7280,aaa280@wichita.gov,
103-456-281,1904 S 123RD ST E 281,,WICHITA,KS,50281,316-640-7281,aaa281@wichita.gov,
103-456-282,1904 S 123RD ST E 282,,WICHITA,KS,50282,316-640-7282,aaa282@wichita.gov,
103-456-283,1904 S 123RD ST E 283,,WICHITA,KS,50283,316-640-7283,aaa283@wichita.gov,
103-456-284,1904 S 123RD ST E 284,,WICHITA,KS,50284,316-640-7284,aaa284@wichita.gov,
103-456-285,1904 S 123RD ST E 285,,WICHITA,KS,50285,316-640-7285,aaa285@wichita.gov,
103-456-286,1904 S 123RD ST E 286,,WICHITA,KS,50286,316-640-7286,aaa286@wichita.gov,
103-456-287,1904 S 123RD ST E 287,,WICHITA,KS,50287,316-640-7287,aaa287@wichita.gov,
103-456-288,1904 S 123RD ST E 288,,WICHITA,KS,50288,316-640-7288,aaa288@wichita.gov,
103-456-289,1904 S 123RD ST E 289,,WICHITA,KS,50289,316-640-7289,aaa289@wichita.gov,
103-456-290,1904 S 123RD ST E 290,,WICHITA,KS,50290,316-640-7290,aaa290@wichita.gov,
103-456-291,1904 S 123RD ST E 291,,WICHITA,KS,50291,316-640-7291,aaa291@wichita.gov,
103-456-292,1904 S 123RD ST E 292,,WICHITA,KS,50292,316-640-7292,aaa292@wichita.gov,
103-456-293,1904 S 123RD ST E 293,,WICHITA,KS,50293,316-640-7293,aaa293@wichita.gov,
103-456-294,1904 S 123RD ST E 294,,WICHITA,KS,50294,316-640-7294,aaa294@wichita.gov,
103-456-295,1904 S 123RD ST E 295,,WICHITA,KS,50295,316-640-7295,aaa295@wichita.gov,
103-456-296,1904 S 123RD ST E 296,,WICHITA,KS,50296,316-640-7296,aaa296@wichita.gov,
103-456-297,1904 S 123RD ST E 297,,WICHITA,KS,50297,316-640-7297,aaa297@wichita.gov,
103-456-298,1904 S 123RD ST E 298,,WICHITA,KS,50298,316-640-7298,aaa298@wichita.gov,
103-456-299,1904 S 123RD ST E 299,,WICHITA,KS,50299,316-640-7299,aaa299@wichita.gov,
103-456-300,1904 S 123RD ST E 300,,WICHITA,KS,50300,316-640-7300,aaa300@wichita.gov,
103-456-301,1904 S 123RD ST E 301,,WICHITA,KS,50301,316-640-7301,aaa301@wichita.gov,
103-456-302,1904 S 123RD ST E 302,,WICHITA,KS,50302,316-640-7302,aaa302@wichita.gov,
103-456-303,1904 S 123RD ST E 303,,WICHITA,KS,50303,316-640-7303,aaa303@wichita.gov,
103-456-304,1904 S 123RD ST E 304,,WICHITA,KS,50304,316-640-7304,aaa304@wichita.gov,
103-456-305,1904 S 123RD ST E 305,,WICHITA,KS,50305,316-640-7305,aaa305@wichita.gov,
103-456-306,1904 S 123RD ST E 306,,WICHITA,KS,50306,316-640-7306,aaa306@wichita.gov,
103-456-307,1904 S 123RD ST E 307,,WICHITA,KS,50307,316-640-7307,aaa307@wichita.gov,
103-456-308,1904 S 123RD ST E 308,,WICHITA,KS,50308,316-640-7308,aaa308@wichita.gov,
103-456-309,1904 S 123RD ST E 309,,WICHITA,KS,50309,316-640-7309,aaa309@wichita.gov,
103-456-310,1904 S 123RD ST E 310,,WICHITA,KS,50310,316-640-7310,aaa310@wichita.gov,
103-456-311,1904 S 123RD ST E 311,,WICHITA,KS,50311,316-640-7311,aaa311@wichita.gov,
103-456-312,1904 S 123RD ST E 312,,WICHITA,KS,50312,316-640-7312,aaa312@wichita.gov,
103-456-313,1904 S 123RD ST E 313,,WICHITA,KS,50313,316-640-7313,aaa313@wichita.gov,
103-456-314,1904 S 123RD ST E 314,,WICHITA,KS,50314,316-640-7314,aaa314@wichita.gov,
103-456-315,1904 S 123RD ST E 315,,WICHITA,KS,50315,316-640-7315,aaa315@wichita.gov,
103-456-316,1904 S 123RD ST E 316,,WICHITA,KS,50316,316-640-7316,aaa316@wichita.gov,
103-456-317,1904 S 123RD ST E 317,,WICHITA,KS,50317,316-640-7317,aaa317@wichita.gov,
103-456-318,1904 S 123RD ST E 318,,WICHITA,KS,50318,316-640-7318,aaa318@wichita.gov,
103-456-319,1904 S 123RD ST E 319,,WICHITA,KS,50319,316-640-7319,aaa319@wichita.gov,
103-456-320,1904 S 123RD ST E 320,,WICHITA,KS,50320,316-640-7320,aaa320@wichita.gov,
103-456-321,1904 S 123RD ST E 321,,WICHITA,KS,50321,316-640-7321,aaa321@wichita.gov,
103-456-322,1904 S 123RD ST E 322,,WICHITA,KS,50322,316-640-7322,aaa322@wichita.gov,
103-456-323,1904 S 123RD ST E 323,,WICHITA,KS,50323,316-640-7323,aaa323@wichita.gov,
103-456-324,1904 S 123RD ST E 324,,WICHITA,KS,50324,316-640-7324,aaa324@wichita.gov,
103-456-325,1904 S 123RD ST E 325,,WICHITA,KS,50325,316-640-7325,aaa325@wichita.gov,
103-456-326,1904 S 123RD ST E 326,,WICHITA,KS,50326,316-640-7326,aaa326@wichita.gov,
103-456-327,1904 S 123RD ST E 327,,WICHITA,KS,50327,316-640-7327,aaa327@wichita.gov,
103-456-328,1904 S 123RD ST E 328,,WICHITA,KS,50328,316-640-7328,aaa328@wichita.gov,
103-456-329,1904 S 123RD ST E 329,,WICHITA,KS,50329,316-640-7329,aaa329@wichita.gov,
103-456-330,1904 S 123RD ST E 330,,WICHITA,KS,50330,316-640-7330,aaa330@wichita.gov,
103-456-331,1904 S 123RD ST E 331,,WICHITA,KS,50331,316-640-7331,aaa331@wichita.gov,
103-456-332,1904 S 123RD ST E 332,,WICHITA,KS,50332,316-640-7332,aaa332@wichita.gov,
103-456-333,1904 S 123RD ST E 333,,WICHITA,KS,50333,316-640-7333,aaa333@wichita.gov,
103-456-334,1904 S 123RD ST E 334,,WICHITA,KS,50334,316-640-7334,aaa334@wichita.gov,
103-456-335,1904 S 123RD ST E 335,,WICHITA,KS,50335,316-640-7335,aaa335@wichita.gov,
103-456-336,1904 S 123RD ST E 336,,WICHITA,KS,50336,316-640-7336,aaa336@wichita.gov,
103-456-337,1904 S 123RD ST E 337,,WICHITA,KS,50337,316-640-7337,aaa337@wichita.gov,
103-456-338,1904 S 123RD ST E 338,,WICHITA,KS,50338,316-640-7338,aaa338@wichita.gov,
103-456-339,1904 S 123RD ST E 339,,WICHITA,KS,50339,316-640-7339,aaa339@wichita.gov,
103-456-340,1904 S 123RD ST E 340,,WICHITA,KS,50340,316-640-7340,aaa340@wichita.gov,
103-456-341,1904 S 123RD ST E 341,,WICHITA,KS,50341,316-640-7341,aaa341@wichita.gov,
103-456-342,1904 S 123RD ST E 342,,WICHITA,KS,50342,316-640-7342,aaa342@wichita.gov,
103-456-343,1904 S 123RD ST E 343,,WICHITA,KS,50343,316-640-7343,aaa343@wichita.gov,
103-456-344,1904 S 123RD ST E 344,,WICHITA,KS,50344,316-640-7344,aaa344@wichita.gov,
103-456-345,1904 S 123RD ST E 345,,WICHITA,KS,50345,316-640-7345,aaa345@wichita.gov,
103-456-346,1904 S 123RD ST E 346,,WICHITA,KS,50346,316-640-7346,aaa346@wichita.gov,
103-456-347,1904 S 123RD ST E 347,,WICHITA,KS,50347,316-640-7347,aaa347@wichita.gov,
103-456-348,1904 S 123RD ST E 348,,WICHITA,KS,50348,316-640-7348,aaa348@wichita.gov,
103-456-349,1904 S 123RD ST E 349,,WICHITA,KS,50349,316-640-7349,aaa349@wichita.gov,
103-456-350,1904 S 123RD ST E 350,,WICHITA,KS,50350,316-640-7350,aaa350@wichita.gov,
103-456-351,1904 S 123RD ST E 351,,WICHITA,KS,50351,316-640-7351,aaa351@wichita.gov,
103-456-352,1904 S 123RD ST E 352,,WICHITA,KS,50352,316-640-7352,aaa352@wichita.gov,
103-456-353,1904 S 123RD ST E 353,,WICHITA,KS,50353,316-640-7353,aaa353@wichita.gov,
103-456-354,1904 S 123RD ST E 354,,WICHITA,KS,50354,316-640-7354,aaa354@wichita.gov,
103-456-355,1904 S 123RD ST E 355,,WICHITA,KS,50355,316-640-7355,aaa355@wichita.gov,
103-456-356,1904 S 123RD ST E 356,,WICHITA,KS,50356,316-640-7356,aaa356@wichita.gov,
103-456-357,1904 S 123RD ST E 357,,WICHITA,KS,50357,316-640-7357,aaa357@wichita.gov,
103-456-358,1904 S 123RD ST E 358,,WICHITA,KS,50358,316-640-7358,aaa358@wichita.gov,
103-456-359,1904 S 123RD ST E 359,,WICHITA,KS,50359,316-640-7359,aaa359@wichita.gov,
103-456-360,1904 S 123RD ST E 360,,WICHITA,KS,50360,316-640-7360,aaa360@wichita.gov,
103-456-361,1904 S 123RD ST E 361,,WICHITA,KS,50361,316-640-7361,aaa361@wichita.gov,
103-456-362,1904 S 123RD ST E 362,,WICHITA,KS,50362,316-640-7362,aaa362@wichita.gov,
103-456-363,1904 S 123RD ST E 363,,WICHITA,KS,50363,316-640-7363,aaa363@wichita.gov,
103-456-364,1904 S 123RD ST E 364,,WICHITA,KS,50364,316-640-7364,aaa364@wichita.gov,
103-456-365,1904 S 123RD ST E 365,,WICHITA,KS,50365,316-640-7365,aaa365@wichita.gov,
103-456-366,1904 S 123RD ST E 366,,WICHITA,KS,50366,316-640-7366,aaa366@wichita.gov,
103-456-367,1904 S 123RD ST E 367,,WICHITA,KS,50367,316-640-7367,aaa367@wichita.gov,
103-456-368,1904 S 123RD ST E 368,,WICHITA,KS,50368,316-640-7368,aaa368@wichita.gov,
103-456-369,1904 S 123RD ST E 369,,WICHITA,KS,50369,316-640-7369,aaa369@wichita.gov,
103-456-370,1904 S 123RD ST E 370,,WICHITA,KS,50370,316-640-7370,aaa370@wichita.gov,
103-456-371,1904 S 123RD ST E 371,,WICHITA,KS,50371,316-640-7371,aaa371@wichita.gov,
103-456-372,1904 S 123RD ST E 372,,WICHITA,KS,50372,316-640-7372,aaa372@wichita.gov,
103-456-373,1904 S 123RD ST E 373,,WICHITA,KS,50373,316-640-7373,aaa373@wichita.gov,
103-456-374,1904 S 123RD ST E 374,,WICHITA,KS,50374,316-640-7374,aaa374@wichita.gov,
103-456-375,1904 S 123RD ST E 375,,WICHITA,KS,50375,316-640-7375,aaa375@wichita.gov,
103-456-376,1904 S 123RD ST E 376,,WICHITA,KS,50376,316-640-7376,aaa376@wichita.gov,
103-456-377,1904 S 123RD ST E 377,,WICHITA,KS,50377,316-640-7377,aaa377@wichita.gov,
103-456-378,1904 S 123RD ST E 378,,WICHITA,KS,50378,316-640-7378,aaa378@wichita.gov,
103-456-379,1904 S 123RD ST E 379,,WICHITA,KS,50379,316-640-7379,aaa379@wichita.gov,
103-456-380,1904 S 123RD ST E 380,,WICHITA,KS,50380,316-640-7380,aaa380@wichita.gov,
103-456-381,1904 S 123RD ST E 381,,WICHITA,KS,50381,316-640-7381,aaa381@wichita.gov,
103-456-382,1904 S 123RD ST E 382,,WICHITA,KS,50382,316-640-7382,aaa382@wichita.gov,
103-456-383,1904 S 123RD ST E 383,,WICHITA,KS,50383,316-640-7383,aaa383@wichita.gov,
103-456-384,1904 S 123RD ST E 384,,WICHITA,KS,50384,316-640-7384,aaa384@wichita.gov,
103-456-385,1904 S 123RD ST E 385,,WICHITA,KS,50385,316-640-7385,aaa385@wichita.gov,
103-456-386,1904 S 123RD ST E 386,,WICHITA,KS,50386,316-640-7386,aaa386@wichita.gov,
103-456-387,1904 S 123RD ST E 387,,WICHITA,KS,50387,316-640-7387,aaa387@wichita.gov,
103-456-388,1904 S 123RD ST E 388,,WICHITA,KS,50388,316-640-7388,aaa388@wichita.gov,
103-456-389,1904 S 123RD ST E 389,,WICHITA,KS,50389,316-640-7389,aaa389@wichita.gov,
103-456-390,1904 S 123RD ST E 390,,WICHITA,KS,50390,316-640-7390,aaa390@wichita.gov,
103-456-391,1904 S 123RD ST E 391,,WICHITA,KS,50391,316-640-7391,aaa391@wichita.gov,
103-456-392,1904 S 123RD ST E 392,,WICHITA,KS,50392,316-640-7392,aaa392@wichita.gov,
103-456-393,1904 S 123RD ST E 393,,WICHITA,KS,50393,316-640-7393,aaa393@wichita.gov,
103-456-394,1904 S 123RD ST E 394,,WICHITA,KS,50394,316-640-7394,aaa394@wichita.gov,
103-456-395,1904 S 123RD ST E 395,,WICHITA,KS,50395,316-640-7395,aaa395@wichita.gov,
103-456-396,1904 S 123RD ST E 396,,WICHITA,KS,50396,316-640-7396,aaa396@wichita.gov,
103-456-397,1904 S 123RD ST E 397,,WICHITA,KS,50397,316-640-7397,aaa397@wichita.gov,
103-456-398,1904 S 123RD ST E 398,,WICHITA,KS,50398,316-640-7398,aaa398@wichita.gov,
103-456-399,1904 S 123RD ST E 399,,WICHITA,KS,50399,316-640-7399,aaa399@wichita.gov,
103-456-400,1904 S 123RD ST E 400,,WICHITA,KS,50400,316-640-7400,aaa400@wichita.gov,
103-456-401,1904 S 123RD ST E 401,,WICHITA,KS,50401,316-640-7401,aaa401@wichita.gov,
103-456-402,1904 S 123RD ST E 402,,WICHITA,KS,50402,316-640-7402,aaa402@wichita.gov,
103-456-403,1904 S 123RD ST E 403,,WICHITA,KS,50403,316-640-7403,aaa403@wichita.gov,
103-456-404,1904 S 123RD ST E 404,,WICHITA,KS,50404,316-640-7404,aaa404@wichita.gov,
103-456-405,1904 S 123RD ST E 405,,WICHITA,KS,50405,316-640-7405,aaa405@wichita.gov,
103-456-406,1904 S 123RD ST E 406,,WICHITA,KS,50406,316-640-7406,aaa406@wichita.gov,
103-456-407,1904 S 123RD ST E 407,,WICHITA,KS,50407,316-640-7407,aaa407@wichita.gov,
103-456-408,1904 S 123RD ST E 408,,WICHITA,KS,50408,316-640-7408,aaa408@wichita.gov,
103-456-409,1904 S 123RD ST E 409,,WICHITA,KS,50409,316-640-7409,aaa409@wichita.gov,
103-456-410,1904 S 123RD ST E 410,,WICHITA,KS,50410,316-640-7410,aaa410@wichita.gov,
103-456-411,1904 S 123RD ST E 411,,WICHITA,KS,50411,316-640-7411,aaa411@wichita.gov,
103-456-412,1904 S 123RD ST E 412,,WICHITA,KS,50412,316-640-7412,aaa412@wichita.gov,
103-456-413,1904 S 123RD ST E 413,,WICHITA,KS,50413,316-640-7413,aaa413@wichita.gov,
103-456-414,1904 S 123RD ST E 414,,WICHITA,KS,50414,316-640-7414,aaa414@wichita.gov,
103-456-415,1904 S 123RD ST E 415,,WICHITA,KS,50415,316-640-7415,aaa415@wichita.gov,
103-456-416,1904 S 123RD ST E 416,,WICHITA,KS,50416,316-640-7416,aaa416@wichita.gov,
103-456-417,1904 S 123RD ST E 417,,WICHITA,KS,50417,316-640-7417,aaa417@wichita.gov,
103-456-418,1904 S 123RD ST E 418,,WICHITA,KS,50418,316-640-7418,aaa418@wichita.gov,
103-456-419,1904 S 123RD ST E 419,,WICHITA,KS,50419,316-640-7419,aaa419@wichita.gov,
103-456-420,1904 S 123RD ST E 420,,WICHITA,KS,50420,316-640-7420,aaa420@wichita.gov,
103-456-421,1904 S 123RD ST E 421,,WICHITA,KS,50421,316-640-7421,aaa421@wichita.gov,
103-456-422,1904 S 123RD ST E 422,,WICHITA,KS,50422,316-640-7422,aaa422@wichita.gov,
103-456-423,1904 S 123RD ST E 423,,WICHITA,KS,50423,316-640-7423,aaa423@wichita.gov,
103-456-424,1904 S 123RD ST E 424,,WICHITA,KS,50424,316-640-7424,aaa424@wichita.gov,
103-456-425,1904 S 123RD ST E 425,,WICHITA,KS,50425,316-640-7425,aaa425@wichita.gov,
103-456-426,1904 S 123RD ST E 426,,WICHITA,KS,50426,316-640-7426,aaa426@wichita.gov,
103-456-427,1904 S 123RD ST E 427,,WICHITA,KS,50427,316-640-7427,aaa427@wichita.gov,
103-456-428,1904 S 123RD ST E 428,,WICHITA,KS,50428,316-640-7428,aaa428@wichita.gov,
103-456-429,1904 S 123RD ST E 429,,WICHITA,KS,50429,316-640-7429,aaa429@wichita.gov,
103-456-430,1904 S 123RD ST E 430,,WICHITA,KS,50430,316-640-7430,aaa430@wichita.gov,
103-456-431,1904 S 123RD ST E 431,,WICHITA,KS,50431,316-640-7431,aaa431@wichita.gov,
103-456-432,1904 S 123RD ST E 432,,WICHITA,KS,50432,316-640-7432,aaa432@wichita.gov,
103-456-433,1904 S 123RD ST E 433,,WICHITA,KS,50433,316-640-7433,aaa433@wichita.gov,
103-456-434,1904 S 123RD ST E 434,,WICHITA,KS,50434,316-640-7434,aaa434@wichita.gov,
103-456-435,1904 S 123RD ST E 435,,WICHITA,KS,50435,316-640-7435,aaa435@wichita.gov,
103-456-436,1904 S 123RD ST E 436,,WICHITA,KS,50436,316-640-7436,aaa436@wichita.gov,
103-456-437,1904 S 123RD ST E 437,,WICHITA,KS,50437,316-640-7437,aaa437@wichita.gov,
103-456-438,1904 S 123RD ST E 438,,WICHITA,KS,50438,316-640-7438,aaa438@wichita.gov,
103-456-439,1904 S 123RD ST E 439,,WICHITA,KS,50439,316-640-7439,aaa439@wichita.gov,
103-456-440,1904 S 123RD ST E 440,,WICHITA,KS,50440,316-640-7440,aaa440@wichita.gov,
103-456-441,1904 S 123RD ST E 441,,WICHITA,KS,50441,316-640-7441,aaa441@wichita.gov,
103-456-442,1904 S 123RD ST E 442,,WICHITA,KS,50442,316-640-7442,aaa442@wichita.gov,
103-456-443,1904 S 123RD ST E 443,,WICHITA,KS,50443,316-640-7443,aaa443@wichita.gov,
103-456-444,1904 S 123RD ST E 444,,WICHITA,KS,50444,316-640-7444,aaa444@wichita.gov,
103-456-445,1904 S 123RD ST E 445,,WICHITA,KS,50445,316-640-7445,aaa445@wichita.gov,
103-456-446,1904 S 123RD ST E 446,,WICHITA,KS,50446,316-640-7446,aaa446@wichita.gov,
103-456-447,1904 S 123RD ST E 447,,WICHITA,KS,50447,316-640-7447,aaa447@wichita.gov,
103-456-448,1904 S 123RD ST E 448,,WICHITA,KS,50448,316-640-7448,aaa448@wichita.gov,
103-456-449,1904 S 123RD ST E 449,,WICHITA,KS,50449,316-640-7449,aaa449@wichita.gov,
103-456-450,1904 S 123RD ST E 450,,WICHITA,KS,50450,316-640-7450,aaa450@wichita.gov,
103-456-451,1904 S 123RD ST E 451,,WICHITA,KS,50451,316-640-7451,aaa451@wichita.gov,
103-456-452,1904 S 123RD ST E 452,,WICHITA,KS,50452,316-640-7452,aaa452@wichita.gov,
103-456-453,1904 S 123RD ST E 453,,WICHITA,KS,50453,316-640-7453,aaa453@wichita.gov,
103-456-454,1904 S 123RD ST E 454,,WICHITA,KS,50454,316-640-7454,aaa454@wichita.gov,
103-456-455,1904 S 123RD ST E 455,,WICHITA,KS,50455,316-640-7455,aaa455@wichita.gov,
103-456-456,1904 S 123RD ST E 456,,WICHITA,KS,50456,316-640-7456,aaa456@wichita.gov,
103-456-457,1904 S 123RD ST E 457,,WICHITA,KS,50457,316-640-7457,aaa457@wichita.gov,
103-456-458,1904 S 123RD ST E 458,,WICHITA,KS,50458,316-640-7458,aaa458@wichita.gov,
103-456-459,1904 S 123RD ST E 459,,WICHITA,KS,50459,316-640-7459,aaa459@wichita.gov,
103-456-460,1904 S 123RD ST E 460,,WICHITA,KS,50460,316-640-7460,aaa460@wichita.gov,
103-456-461,1904 S 123RD ST E 461,,WICHITA,KS,50461,316-640-7461,aaa461@wichita.gov,
103-456-462,1904 S 123RD ST E 462,,WICHITA,KS,50462,316-640-7462,aaa462@wichita.gov,
103-456-463,1904 S 123RD ST E 463,,WICHITA,KS,50463,316-640-7463,aaa463@wichita.gov,
103-456-464,1904 S 123RD ST E 464,,WICHITA,KS,50464,316-640-7464,aaa464@wichita.gov,
103-456-465,1904 S 123RD ST E 465,,WICHITA,KS,50465,316-640-7465,aaa465@wichita.gov,
103-456-466,1904 S 123RD ST E 466,,WICHITA,KS,50466,316-640-7466,aaa466@wichita.gov,
103-456-467,1904 S 123RD ST E 467,,WICHITA,KS,50467,316-640-7467,aaa467@wichita.gov,
103-456-468,1904 S 123RD ST E 468,,WICHITA,KS,50468,316-640-7468,aaa468@wichita.gov,
103-456-469,1904 S 123RD ST E 469,,WICHITA,KS,50469,316-640-7469,aaa469@wichita.gov,
103-456-470,1904 S 123RD ST E 470,,WICHITA,KS,50470,316-640-7470,aaa470@wichita.gov,
103-456-471,1904 S 123RD ST E 471,,WICHITA,KS,50471,316-640-7471,aaa471@wichita.gov,
103-456-472,1904 S 123RD ST E 472,,WICHITA,KS,50472,316-640-7472,aaa472@wichita.gov,
103-456-473,1904 S 123RD ST E 473,,WICHITA,KS,50473,316-640-7473,aaa473@wichita.gov,
103-456-474,1904 S 123RD ST E 474,,WICHITA,KS,50474,316-640-7474,aaa474@wichita.gov,
103-456-475,1904 S 123RD ST E 475,,WICHITA,KS,50475,316-640-7475,aaa475@wichita.gov,
103-456-476,1904 S 123RD ST E 476,,WICHITA,KS,50476,316-640-7476,aaa476@wichita.gov,
103-456-477,1904 S 123RD ST E 477,,WICHITA,KS,50477,316-640-7477,aaa477@wichita.gov,
103-456-478,1904 S 123RD ST E 478,,WICHITA,KS,50478,316-640-7478,aaa478@wichita.gov,
103-456-479,1904 S 123RD ST E 479,,WICHITA,KS,50479,316-640-7479,aaa479@wichita.gov,
103-456-480,1904 S 123RD ST E 480,,WICHITA,KS,50480,316-640-7480,aaa480@wichita.gov,
103-456-481,1904 S 123RD ST E 481,,WICHITA,KS,50481,316-640-7481,aaa481@wichita.gov,
103-456-482,1904 S 123RD ST E 482,,WICHITA,KS,50482,316-640-7482,aaa482@wichita.gov,
103-456-483,1904 S 123RD ST E 483,,WICHITA,KS,50483,316-640-7483,aaa483@wichita.gov,
103-456-484,1904 S 123RD ST E 484,,WICHITA,KS,50484,316-640-7484,aaa484@wichita.gov,
103-456-485,1904 S 123RD ST E 485,,WICHITA,KS,50485,316-640-7485,aaa485@wichita.gov,
103-456-486,1904 S 123RD ST E 486,,WICHITA,KS,50486,316-640-7486,aaa486@wichita.gov,
103-456-487,1904 S 123RD ST E 487,,WICHITA,KS,50487,316-640-7487,aaa487@wichita.gov,
103-456-488,1904 S 123RD ST E 488,,WICHITA,KS,50488,316-640-7488,aaa488@wichita.gov,
103-456-489,1904 S 123RD ST E 489,,WICHITA,KS,50489,316-640-7489,aaa489@wichita.gov,
103-456-490,1904 S 123RD ST E 490,,WICHITA,KS,50490,316-640-7490,aaa490@wichita.gov,
103-456-491,1904 S 123RD ST E 491,,WICHITA,KS,50491,316-640-7491,aaa491@wichita.gov,
103-456-492,1904 S 123RD ST E 492,,WICHITA,KS,50492,316-640-7492,aaa492@wichita.gov,
103-456-493,1904 S 123RD ST E 493,,WICHITA,KS,50493,316-640-7493,aaa493@wichita.gov,
103-456-494,1904 S 123RD ST E 494,,WICHITA,KS,50494,316-640-7494,aaa494@wichita.gov,
103-456-495,1904 S 123RD ST E 495,,WICHITA,KS,50495,316-640-7495,aaa495@wichita.gov,
103-456-496,1904 S 123RD ST E 496,,WICHITA,KS,50496,316-640-7496,aaa496@wichita.gov,
103-456-497,1904 S 123RD ST E 497,,WICHITA,KS,50497,316-640-7497,aaa497@wichita.gov,
103-456-498,1904 S 123RD ST E 498,,WICHITA,KS,50498,316-640-7498,aaa498@wichita.gov,
103-456-499,1904 S 123RD ST E 499,,WICHITA,KS,50499,316-640-7499,aaa499@wichita.gov,
103-456-500,1904 S 123RD ST E 500,,WICHITA,KS,50500,316-640-7500,aaa500@wichita.gov,
103-456-501,1904 S 123RD ST E 501,,WICHITA,KS,50501,316-640-7501,aaa501@wichita.gov,
103-456-502,1904 S 123RD ST E 502,,WICHITA,KS,50502,316-640-7502,aaa502@wichita.gov,
103-456-503,1904 S 123RD ST E 503,,WICHITA,KS,50503,316-640-7503,aaa503@wichita.gov,
103-456-504,1904 S 123RD ST E 504,,WICHITA,KS,50504,316-640-7504,aaa504@wichita.gov,
103-456-505,1904 S 123RD ST E 505,,WICHITA,KS,50505,316-640-7505,aaa505@wichita.gov,
103-456-506,1904 S 123RD ST E 506,,WICHITA,KS,50506,316-640-7506,aaa506@wichita.gov,
103-456-507,1904 S 123RD ST E 507,,WICHITA,KS,50507,316-640-7507,aaa507@wichita.gov,
103-456-508,1904 S 123RD ST E 508,,WICHITA,KS,50508,316-640-7508,aaa508@wichita.gov,
103-456-509,1904 S 123RD ST E 509,,WICHITA,KS,50509,316-640-7509,aaa509@wichita.gov,
103-456-510,1904 S 123RD ST E 510,,WICHITA,KS,50510,316-640-7510,aaa510@wichita.gov,
103-456-511,1904 S 123RD ST E 511,,WICHITA,KS,50511,316-640-7511,aaa511@wichita.gov,
103-456-512,1904 S 123RD ST E 512,,WICHITA,KS,50512,316-640-7512,aaa512@wichita.gov,
103-456-513,1904 S 123RD ST E 513,,WICHITA,KS,50513,316-640-7513,aaa513@wichita.gov,
103-456-514,1904 S 123RD ST E 514,,WICHITA,KS,50514,316-640-7514,aaa514@wichita.gov,
103-456-515,1904 S 123RD ST E 515,,WICHITA,KS,50515,316-640-7515,aaa515@wichita.gov,
103-456-516,1904 S 123RD ST E 516,,WICHITA,KS,50516,316-640-7516,aaa516@wichita.gov,
103-456-517,1904 S 123RD ST E 517,,WICHITA,KS,50517,316-640-7517,aaa517@wichita.gov,
103-456-518,1904 S 123RD ST E 518,,WICHITA,KS,50518,316-640-7518,aaa518@wichita.gov,
103-456-519,1904 S 123RD ST E 519,,WICHITA,KS,50519,316-640-7519,aaa519@wichita.gov,
103-456-520,1904 S 123RD ST E 520,,WICHITA,KS,50520,316-640-7520,aaa520@wichita.gov,
103-456-521,1904 S 123RD ST E 521,,WICHITA,KS,50521,316-640-7521,aaa521@wichita.gov,
103-456-522,1904 S 123RD ST E 522,,WICHITA,KS,50522,316-640-7522,aaa522@wichita.gov,
103-456-523,1904 S 123RD ST E 523,,WICHITA,KS,50523,316-640-7523,aaa523@wichita.gov,
103-456-524,1904 S 123RD ST E 524,,WICHITA,KS,50524,316-640-7524,aaa524@wichita.gov,
103-456-525,1904 S 123RD ST E 525,,WICHITA,KS,50525,316-640-7525,aaa525@wichita.gov,
103-456-526,1904 S 123RD ST E 526,,WICHITA,KS,50526,316-640-7526,aaa526@wichita.gov,
103-456-527,1904 S 123RD ST E 527,,WICHITA,KS,50527,316-640-7527,aaa527@wichita.gov,
103-456-528,1904 S 123RD ST E 528,,WICHITA,KS,50528,316-640-7528,aaa528@wichita.gov,
103-456-529,1904 S 123RD ST E 529,,WICHITA,KS,50529,316-640-7529,aaa529@wichita.gov,
103-456-530,1904 S 123RD ST E 530,,WICHITA,KS,50530,316-640-7530,aaa530@wichita.gov,
103-456-531,1904 S 123RD ST E 531,,WICHITA,KS,50531,316-640-7531,aaa531@wichita.gov,
103-456-532,1904 S 123RD ST E 532,,WICHITA,KS,50532,316-640-7532,aaa532@wichita.gov,
103-456-533,1904 S 123RD ST E 533,,WICHITA,KS,50533,316-640-7533,aaa533@wichita.gov,
103-456-534,1904 S 123RD ST E 534,,WICHITA,KS,50534,316-640-7534,aaa534@wichita.gov,
103-456-535,1904 S 123RD ST E 535,,WICHITA,KS,50535,316-640-7535,aaa535@wichita.gov,
103-456-536,1904 S 123RD ST E 536,,WICHITA,KS,50536,316-640-7536,aaa536@wichita.gov,
103-456-537,1904 S 123RD ST E 537,,WICHITA,KS,50537,316-640-7537,aaa537@wichita.gov,
103-456-538,1904 S 123RD ST E 538,,WICHITA,KS,50538,316-640-7538,aaa538@wichita.gov,
103-456-539,1904 S 123RD ST E 539,,WICHITA,KS,50539,316-640-7539,aaa539@wichita.gov,
103-456-540,1904 S 123RD ST E 540,,WICHITA,KS,50540,316-640-7540,aaa540@wichita.gov,
103-456-541,1904 S 123RD ST E 541,,WICHITA,KS,50541,316-640-7541,aaa541@wichita.gov,
103-456-542,1904 S 123RD ST E 542,,WICHITA,KS,50542,316-640-7542,aaa542@wichita.gov,
103-456-543,1904 S 123RD ST E 543,,WICHITA,KS,50543,316-640-7543,aaa543@wichita.gov,
103-456-544,1904 S 123RD ST E 544,,WICHITA,KS,50544,316-640-7544,aaa544@wichita.gov,
103-456-545,1904 S 123RD ST E 545,,WICHITA,KS,50545,316-640-7545,aaa545@wichita.gov,
103-456-546,1904 S 123RD ST E 546,,WICHITA,KS,50546,316-640-7546,aaa546@wichita.gov,
103-456-547,1904 S 123RD ST E 547,,WICHITA,KS,50547,316-640-7547,aaa547@wichita.gov,
103-456-548,1904 S 123RD ST E 548,,WICHITA,KS,50548,316-640-7548,aaa548@wichita.gov,
103-456-549,1904 S 123RD ST E 549,,WICHITA,KS,50549,316-640-7549,aaa549@wichita.gov,
103-456-550,1904 S 123RD ST E 550,,WICHITA,KS,50550,316-640-7550,aaa550@wichita.gov,
103-456-551,1904 S 123RD ST E 551,,WICHITA,KS,50551,316-640-7551,aaa551@wichita.gov,
103-456-552,1904 S 123RD ST E 552,,WICHITA,KS,50552,316-640-7552,aaa552@wichita.gov,
103-456-553,1904 S 123RD ST E 553,,WICHITA,KS,50553,316-640-7553,aaa553@wichita.gov,
103-456-554,1904 S 123RD ST E 554,,WICHITA,KS,50554,316-640-7554,aaa554@wichita.gov,
103-456-555,1904 S 123RD ST E 555,,WICHITA,KS,50555,316-640-7555,aaa555@wichita.gov,
103-456-556,1904 S 123RD ST E 556,,WICHITA,KS,50556,316-640-7556,aaa556@wichita.gov,
103-456-557,1904 S 123RD ST E 557,,WICHITA,KS,50557,316-640-7557,aaa557@wichita.gov,
103-456-558,1904 S 123RD ST E 558,,WICHITA,KS,50558,316-640-7558,aaa558@wichita.gov,
103-456-559,1904 S 123RD ST E 559,,WICHITA,KS,50559,316-640-7559,aaa559@wichita.gov,
103-456-560,1904 S 123RD ST E 560,,WICHITA,KS,50560,316-640-7560,aaa560@wichita.gov,
103-456-561,1904 S 123RD ST E 561,,WICHITA,KS,50561,316-640-7561,aaa561@wichita.gov,
103-456-562,1904 S 123RD ST E 562,,WICHITA,KS,50562,316-640-7562,aaa562@wichita.gov,
103-456-563,1904 S 123RD ST E 563,,WICHITA,KS,50563,316-640-7563,aaa563@wichita.gov,
103-456-564,1904 S 123RD ST E 564,,WICHITA,KS,50564,316-640-7564,aaa564@wichita.gov,
103-456-565,1904 S 123RD ST E 565,,WICHITA,KS,50565,316-640-7565,aaa565@wichita.gov,
103-456-566,1904 S 123RD ST E 566,,WICHITA,KS,50566,316-640-7566,aaa566@wichita.gov,
103-456-567,1904 S 123RD ST E 567,,WICHITA,KS,50567,316-640-7567,aaa567@wichita.gov,
103-456-568,1904 S 123RD ST E 568,,WICHITA,KS,50568,316-640-7568,aaa568@wichita.gov,
103-456-569,1904 S 123RD ST E 569,,WICHITA,KS,50569,316-640-7569,aaa569@wichita.gov,
103-456-570,1904 S 123RD ST E 570,,WICHITA,KS,50570,316-640-7570,aaa570@wichita.gov,
103-456-571,1904 S 123RD ST E 571,,WICHITA,KS,50571,316-640-7571,aaa571@wichita.gov,
103-456-572,1904 S 123RD ST E 572,,WICHITA,KS,50572,316-640-7572,aaa572@wichita.gov,
103-456-573,1904 S 123RD ST E 573,,WICHITA,KS,50573,316-640-7573,aaa573@wichita.gov,
103-456-574,1904 S 123RD ST E 574,,WICHITA,KS,50574,316-640-7574,aaa574@wichita.gov,
103-456-575,1904 S 123RD ST E 575,,WICHITA,KS,50575,316-640-7575,aaa575@wichita.gov,
103-456-576,1904 S 123RD ST E 576,,WICHITA,KS,50576,316-640-7576,aaa576@wichita.gov,
103-456-577,1904 S 123RD ST E 577,,WICHITA,KS,50577,316-640-7577,aaa577@wichita.gov,
103-456-578,1904 S 123RD ST E 578,,WICHITA,KS,50578,316-640-7578,aaa578@wichita.gov,
103-456-579,1904 S 123RD ST E 579,,WICHITA,KS,50579,316-640-7579,aaa579@wichita.gov,
103-456-580,1904 S 123RD ST E 580,,WICHITA,KS,50580,316-640-7580,aaa580@wichita.gov,
103-456-581,1904 S 123RD ST E 581,,WICHITA,KS,50581,316-640-7581,aaa581@wichita.gov,
103-456-582,1904 S 123RD ST E 582,,WICHITA,KS,50582,316-640-7582,aaa582@wichita.gov,
103-456-583,1904 S 123RD ST E 583,,WICHITA,KS,50583,316-640-7583,aaa583@wichita.gov,
103-456-584,1904 S 123RD ST E 584,,WICHITA,KS,50584,316-640-7584,aaa584@wichita.gov,
103-456-585,1904 S 123RD ST E 585,,WICHITA,KS,50585,316-640-7585,aaa585@wichita.gov,
103-456-586,1904 S 123RD ST E 586,,WICHITA,KS,50586,316-640-7586,aaa586@wichita.gov,
103-456-587,1904 S 123RD ST E 587,,WICHITA,KS,50587,316-640-7587,aaa587@wichita.gov,
103-456-588,1904 S 123RD ST E 588,,WICHITA,KS,50588,316-640-7588,aaa588@wichita.gov,
103-456-589,1904 S 123RD ST E 589,,WICHITA,KS,50589,316-640-7589,aaa589@wichita.gov,
103-456-590,1904 S 123RD ST E 590,,WICHITA,KS,50590,316-640-7590,aaa590@wichita.gov,
103-456-591,1904 S 123RD ST E 591,,WICHITA,KS,50591,316-640-7591,aaa591@wichita.gov,
103-456-592,1904 S 123RD ST E 592,,WICHITA,KS,50592,316-640-7592,aaa592@wichita.gov,
103-456-593,1904 S 123RD ST E 593,,WICHITA,KS,50593,316-640-7593,aaa593@wichita.gov,
103-456-594,1904 S 123RD ST E 594,,WICHITA,KS,50594,316-640-7594,aaa594@wichita.gov,
103-456-595,1904 S 123RD ST E 595,,WICHITA,KS,50595,316-640-7595,aaa595@wichita.gov,
103-456-596,1904 S 123RD ST E 596,,WICHITA,KS,50596,316-640-7596,aaa596@wichita.gov,
103-456-597,1904 S 123RD ST E 597,,WICHITA,KS,50597,316-640-7597,aaa597@wichita.gov,
103-456-598,1904 S 123RD ST E 598,,WICHITA,KS,50598,316-640-7598,aaa598@wichita.gov,
